1 27424U 02022A   02203.51531469  .00000665  00000-0  15757-3 0  1005
2 27424 098.1737 143.6731 0003965 040.8143 319.3353 14.57106361 11546